{"type": "FeatureCollection", "features": [ {"type": "Feature", "properties": {"norad_id": 38552, "name": "METEOSAT-10 (MSG-3)", "group": "weather", "lat": 4.260212286745981, "lon": 149.4929539989907, "alt_km": 35787.02476988885, "timestamp": "2025-12-21T03:56:50.501131+00:00", "meta": {"OBJECT_NAME": "METEOSAT-10 (MSG-3)", "OBJECT_ID": "2012-035B", "EPOCH": "2025-12-19T08:07:49.924128", "MEAN_MOTION": 1.00276524, "ECCENTRICITY": 6.93e-05, "INCLINATION": 4.2433, "RA_OF_ASC_NODE": 61.706, "ARG_OF_PERICENTER": 270.066, "MEAN_ANOMALY": 238.6463, "EPHEMERIS_TYPE": 0, "CLASSIFICATION_TYPE": "U", "NORAD_CAT_ID": 38552, "ELEMENT_SET_NO": 999, "REV_AT_EPOCH": 4905, "BSTAR": 0, "MEAN_MOTION_DOT": 1.7e-07, "MEAN_MOTION_DDOT": 0}, "tle": {"line1": "1 38552U 12035B   25353.33877227  .00000017  00000+0  00000+0 0  9997", "line2": "2 38552   4.2433  61.7060 0000693 270.0660 238.6463  1.00276524 49057"}}, "geometry": {"type": "Point", "coordinates": [149.4929539989907, 4.260212286745981]}}, {"type": "Feature", "properties": {"norad_id": 38771, "name": "METOP-B", "group": "weather", "lat": -26.33603554227548, "lon": 49.316107724944054, "alt_km": 828.2482633168993, "timestamp": "2025-12-21T03:56:50.501141+00:00", "meta": {"OBJECT_NAME": "METOP-B", "OBJECT_ID": "2012-049A", "EPOCH": "2025-12-20T17:56:09.923712", "MEAN_MOTION": 14.21411138, "ECCENTRICITY": 0.0003176, "INCLINATION": 98.6787, "RA_OF_ASC_NODE": 44.57, "ARG_OF_PERICENTER": 127.1484, "MEAN_ANOMALY": 232.9984, "EPHEMERIS_TYPE": 0, "CLASSIFICATION_TYPE": "U", "NORAD_CAT_ID": 38771, "ELEMENT_SET_NO": 999, "REV_AT_EPOCH": 68791, "BSTAR": 6.1599e-05, "MEAN_MOTION_DOT": 9.1e-07, "MEAN_MOTION_DDOT": 0}, "tle": {"line1": "1 38771U 12049A   25354.74733708  .00000091  00000+0  61599-4 0  9993", "line2": "2 38771  98.6787  44.5700 0003176 127.1484 232.9984 14.21411138687911"}}, "geometry": {"type": "Point", "coordinates": [49.316107724944054, -26.33603554227548]}}, {"type": "Feature", "properties": {"norad_id": 39216, "name": "INSAT-3D", "group": "weather", "lat": -0.37612893585314516, "lon": -81.31387942344328, "alt_km": 35778.98281961753, "timestamp": "2025-12-21T03:56:50.501152+00:00", "meta": {"OBJECT_NAME": "INSAT-3D", "OBJECT_ID": "2013-038B", "EPOCH": "2025-12-20T18:58:56.472096", "MEAN_MOTION": 1.00276953, "ECCENTRICITY": 0.0001806, "INCLINATION": 1.4644, "RA_OF_ASC_NODE": 84.9078, "ARG_OF_PERICENTER": 152.4363, "MEAN_ANOMALY": 266.4889, "EPHEMERIS_TYPE": 0, "CLASSIFICATION_TYPE": "U", "NORAD_CAT_ID": 39216, "ELEMENT_SET_NO": 999, "REV_AT_EPOCH": 4529, "BSTAR": 0, "MEAN_MOTION_DOT": -3.16e-06, "MEAN_MOTION_DDOT": 0}, "tle": {"line1": "1 39216U 13038B   25354.79093139 -.00000316  00000+0  00000+0 0  9995", "line2": "2 39216   1.4644  84.9078 0001806 152.4363 266.4889  1.00276953 45293"}}, "geometry": {"type": "Point", "coordinates": [-81.31387942344328, -0.37612893585314516]}}, {"type": "Feature", "properties": {"norad_id": 39260, "name": "FENGYUN 3C", "group": "weather", "lat": 46.42224111031852, "lon": -36.58438766758815, "alt_km": 841.8255919167459, "timestamp": "2025-12-21T03:56:50.501162+00:00", "meta": {"OBJECT_NAME": "FENGYUN 3C", "OBJECT_ID": "2013-052A", "EPOCH": "2025-12-20T20:56:24.686016", "MEAN_MOTION": 14.15698555, "ECCENTRICITY": 0.0014733, "INCLINATION": 98.4771, "RA_OF_ASC_NODE": 332.1551, "ARG_OF_PERICENTER": 172.3572, "MEAN_ANOMALY": 187.783, "EPHEMERIS_TYPE": 0, "CLASSIFICATION_TYPE": "U", "NORAD_CAT_ID": 39260, "ELEMENT_SET_NO": 999, "REV_AT_EPOCH": 63333, "BSTAR": 4.0246e-05, "MEAN_MOTION_DOT": 3.8e-07, "MEAN_MOTION_DDOT": 0}, "tle": {"line1": "1 39260U 13052A   25354.87250794  .00000038  00000+0  40246-4 0  9992", "line2": "2 39260  98.4771 332.1551 0014733 172.3572 187.7830 14.15698555633334"}}, "geometry": {"type": "Point", "coordinates": [-36.58438766758815, 46.42224111031852]}}, {"type": "Feature", "properties": {"norad_id": 40069, "name": "METEOR-M 2", "group": "weather", "lat": -20.907102828094935, "lon": 149.15470446360953, "alt_km": 822.1440506566105, "timestamp": "2025-12-21T03:56:50.501171+00:00", "meta": {"OBJECT_NAME": "METEOR-M 2", "OBJECT_ID": "2014-037A", "EPOCH": "2025-12-20T21:56:10.311936", "MEAN_MOTION": 14.21389796, "ECCENTRICITY": 0.0005426, "INCLINATION": 98.4903, "RA_OF_ASC_NODE": 332.185, "ARG_OF_PERICENTER": 183.8047, "MEAN_ANOMALY": 176.309, "EPHEMERIS_TYPE": 0, "CLASSIFICATION_TYPE": "U", "NORAD_CAT_ID": 40069, "ELEMENT_SET_NO": 999, "REV_AT_EPOCH": 59399, "BSTAR": 8.2519e-05, "MEAN_MOTION_DOT": 1.38e-06, "MEAN_MOTION_DDOT": 0}, "tle": {"line1": "1 40069U 14037A   25354.91400824  .00000138  00000+0  82519-4 0  9991", "line2": "2 40069  98.4903 332.1850 0005426 183.8047 176.3090 14.21389796593995"}}, "geometry": {"type": "Point", "coordinates": [149.15470446360953, -20.907102828094935]}}, {"type": "Feature", "properties": {"norad_id": 40267, "name": "HIMAWARI-8", "group": "weather", "lat": -0.017757516670357788, "lon": -70.14493767270761, "alt_km": 35782.688239981646, "timestamp": "2025-12-21T03:56:50.501181+00:00", "meta": {"OBJECT_NAME": "HIMAWARI-8", "OBJECT_ID": "2014-060A", "EPOCH": "2025-12-20T19:34:38.799840", "MEAN_MOTION": 1.00270913, "ECCENTRICITY": 8.74e-05, "INCLINATION": 0.0396, "RA_OF_ASC_NODE": 137.9561, "ARG_OF_PERICENTER": 157.6094, "MEAN_ANOMALY": 228.4079, "EPHEMERIS_TYPE": 0, "CLASSIFICATION_TYPE": "U", "NORAD_CAT_ID": 40267, "ELEMENT_SET_NO": 999, "REV_AT_EPOCH": 4097, "BSTAR": 0, "MEAN_MOTION_DOT": -2.52e-06, "MEAN_MOTION_DDOT": 0}, "tle": {"line1": "1 40267U 14060A   25354.81572685 -.00000252  00000+0  00000+0 0  9999", "line2": "2 40267   0.0396 137.9561 0000874 157.6094 228.4079  1.00270913 40977"}}, "geometry": {"type": "Point", "coordinates": [-70.14493767270761, -0.017757516670357788]}}, {"type": "Feature", "properties": {"norad_id": 40367, "name": "FENGYUN 2G", "group": "weather", "lat": 0.5704404668031654, "lon": -111.53725445195991, "alt_km": 35779.16927129763, "timestamp": "2025-12-21T03:56:50.501192+00:00", "meta": {"OBJECT_NAME": "FENGYUN 2G", "OBJECT_ID": "2014-090A", "EPOCH": "2025-12-20T18:50:19.796640", "MEAN_MOTION": 1.00261225, "ECCENTRICITY": 0.0002663, "INCLINATION": 5.1876, "RA_OF_ASC_NODE": 75.0062, "ARG_OF_PERICENTER": 202.69, "MEAN_ANOMALY": 193.7687, "EPHEMERIS_TYPE": 0, "CLASSIFICATION_TYPE": "U", "NORAD_CAT_ID": 40367, "ELEMENT_SET_NO": 999, "REV_AT_EPOCH": 4021, "BSTAR": 0, "MEAN_MOTION_DOT": -2.79e-06, "MEAN_MOTION_DDOT": 0}, "tle": {"line1": "1 40367U 14090A   25354.78495135 -.00000279  00000+0  00000+0 0  9992", "line2": "2 40367   5.1876  75.0062 0002663 202.6900 193.7687  1.00261225 40212"}}, "geometry": {"type": "Point", "coordinates": [-111.53725445195991, 0.5704404668031654]}}, {"type": "Feature", "properties": {"norad_id": 40732, "name": "METEOSAT-11 (MSG-4)", "group": "weather", "lat": 2.763623234115397, "lon": 158.3785743399335, "alt_km": 35784.01350327813, "timestamp": "2025-12-21T03:56:50.501202+00:00", "meta": {"OBJECT_NAME": "METEOSAT-11 (MSG-4)", "OBJECT_ID": "2015-034A", "EPOCH": "2025-12-20T18:24:37.260288", "MEAN_MOTION": 1.00270003, "ECCENTRICITY": 8.2e-05, "INCLINATION": 2.7562, "RA_OF_ASC_NODE": 71.9805, "ARG_OF_PERICENTER": 136.9548, "MEAN_ANOMALY": 166.015, "EPHEMERIS_TYPE": 0, "CLASSIFICATION_TYPE": "U", "NORAD_CAT_ID": 40732, "ELEMENT_SET_NO": 999, "REV_AT_EPOCH": 542, "BSTAR": 0, "MEAN_MOTION_DOT": 8.2e-07, "MEAN_MOTION_DDOT": 0}, "tle": {"line1": "1 40732U 15034A   25354.76709792  .00000082  00000+0  00000+0 0  9993", "line2": "2 40732   2.7562  71.9805 0000820 136.9548 166.0150  1.00270003  5429"}}, "geometry": {"type": "Point", "coordinates": [158.3785743399335, 2.763623234115397]}}, {"type": "Feature", "properties": {"norad_id": 41105, "name": "ELEKTRO-L 2", "group": "weather", "lat": 5.532746592131233, "lon": 134.5574650268051, "alt_km": 35797.72356540096, "timestamp": "2025-12-21T03:56:50.501213+00:00", "meta": {"OBJECT_NAME": "ELEKTRO-L 2", "OBJECT_ID": "2015-074A", "EPOCH": "2025-12-20T01:10:35.962176", "MEAN_MOTION": 1.00272605, "ECCENTRICITY": 0.00035244, "INCLINATION": 6.243, "RA_OF_ASC_NODE": 72.7416, "ARG_OF_PERICENTER": 209.3855, "MEAN_ANOMALY": 169.9333, "EPHEMERIS_TYPE": 0, "CLASSIFICATION_TYPE": "U", "NORAD_CAT_ID": 41105, "ELEMENT_SET_NO": 999, "REV_AT_EPOCH": 3671, "BSTAR": 0, "MEAN_MOTION_DOT": -9.8e-07, "MEAN_MOTION_DDOT": 0}, "tle": {"line1": "1 41105U 15074A   25354.04902734 -.00000098  00000+0  00000+0 0  9992", "line2": "2 41105   6.2430  72.7416 0003524 209.3855 169.9333  1.00272605 36715"}}, "geometry": {"type": "Point", "coordinates": [134.5574650268051, 5.532746592131233]}}, {"type": "Feature", "properties": {"norad_id": 41752, "name": "INSAT-3DR", "group": "weather", "lat": 0.05679518960937062, "lon": -136.943353752546, "alt_km": 35746.39222885847, "timestamp": "2025-12-21T03:56:50.501224+00:00", "meta": {"OBJECT_NAME": "INSAT-3DR", "OBJECT_ID": "2016-054A", "EPOCH": "2025-12-20T19:39:26.263872", "MEAN_MOTION": 1.00271584, "ECCENTRICITY": 0.0014139, "INCLINATION": 0.1114, "RA_OF_ASC_NODE": 86.3227, "ARG_OF_PERICENTER": 185.2766, "MEAN_ANOMALY": 186.8966, "EPHEMERIS_TYPE": 0, "CLASSIFICATION_TYPE": "U", "NORAD_CAT_ID": 41752, "ELEMENT_SET_NO": 999, "REV_AT_EPOCH": 3403, "BSTAR": 0, "MEAN_MOTION_DOT": -5.4e-07, "MEAN_MOTION_DDOT": 0}, "tle": {"line1": "1 41752U 16054A   25354.81905398 -.00000054  00000+0  00000+0 0  9995", "line2": "2 41752   0.1114  86.3227 0014139 185.2766 186.8966  1.00271584 34031"}}, "geometry": {"type": "Point", "coordinates": [-136.943353752546, 0.05679518960937062]}}]}